[{"OBJECT_NAME":"STARLINK-4786","OBJECT_ID":"2023-014C","EPOCH":"2026-03-09T09:24:36.743616","MEAN_MOTION":14.98328719,"ECCENTRICITY":0.00030724,"INCLINATION":69.9993,"RA_OF_ASC_NODE":65.1076,"ARG_OF_PERICENTER":269.3598,"MEAN_ANOMALY":90.7209,"EPHEMERIS_TYPE":0,"CLASSIFICATION_TYPE":"U","NORAD_CAT_ID":55393,"ELEMENT_SET_NO":999,"REV_AT_EPOCH":17201,"BSTAR":1.350925e-6,"MEAN_MOTION_DOT":-7.7e-7,"MEAN_MOTION_DDOT":0},{"OBJECT_NAME":"CZ-4C DEB","OBJECT_ID":"2015-069D","EPOCH":"2026-03-09T14:03:55.988352","MEAN_MOTION":14.76537169,"ECCENTRICITY":0.0113533,"INCLINATION":97.7994,"RA_OF_ASC_NODE":293.1388,"ARG_OF_PERICENTER":335.1928,"MEAN_ANOMALY":24.3848,"EPHEMERIS_TYPE":0,"CLASSIFICATION_TYPE":"U","NORAD_CAT_ID":42671,"ELEMENT_SET_NO":999,"REV_AT_EPOCH":54179,"BSTAR":0.00082265,"MEAN_MOTION_DOT":6.325e-5,"MEAN_MOTION_DDOT":0}]
